ONEWEB-0159             
1 48062U 21025W   25100.80692688 -.00000183  00000+0 -53531-3 0  9998
2 48062  87.8967  46.1280 0001781  86.9743 273.1590 13.13469445196847
ONEWEB-0164             
1 48063U 21025X   25100.78830336 -.00000217  00000+0 -63011-3 0  9992
2 48063  87.8971  46.1419 0001933  78.8518 281.2828 13.13471560196829
ONEWEB-0167             
1 48064U 21025Y   25100.81625402  .00000018  00000+0  14154-4 0  9995
2 48064  87.8976  46.1583 0001218  63.9843 296.1411 13.13470874196818
ONEWEB-0166             
1 48065U 21025Z   25101.14380663  .00000370  00000+0  97957-3 0  9992
2 48065  87.8966  46.0591 0001965  86.9015 273.2339 13.13470785196930
ONEWEB-0151             
1 48066U 21025AA  25100.84078892  .00000317  00000+0  83306-3 0  9991
2 48066  87.8968  46.1402 0001809  76.3982 283.7349 13.13470356196838
ONEWEB-0170             
1 48067U 21025AB  25100.84925334  .00000106  00000+0  25582-3 0  9992
2 48067  87.8971  46.1433 0002055  65.6128 294.5215 13.13470223196794
ONEWEB-0168             
1 48068U 21025AC  25100.83400794  .00000349  00000+0  92154-3 0  9998
2 48068  87.8972  46.1244 0001861  80.1833 279.9506 13.13469429196803
ONEWEB-0173             
1 48069U 21025AD  25101.13026126  .00000128  00000+0  31442-3 0  9994
2 48069  87.8973  46.0741 0001432  79.6323 280.4968 13.13471721197085
